{
  "type": "FeatureCollection",
  "features": [
    {
      "type": "Feature",
      "properties": {
        "norad_id": 66586,
        "name": "TJS-21",
        "group": "last-30-days",
        "lat": 56.41049069428963,
        "lon": -147.7530024750791,
        "alt_km": 32766.414426582105,
        "timestamp": "2025-12-07T20:38:12.867635+00:00",
        "meta_object_name": "TJS-21",
        "meta_object_id": "2025-269A",
        "meta_epoch": "2025-12-06T17:47:41.602272",
        "meta_mean_motion": 2.00560491,
        "meta_eccentricity": 0.68052367,
        "meta_inclination": 63.2668,
        "meta_ra_of_asc_node": 162.9832,
        "meta_arg_of_pericenter": 269.7989,
        "meta_mean_anomaly": 18.6583,
        "meta_ephemeris_type": 0,
        "meta_classification_type": "U",
        "meta_norad_cat_id": 66586,
        "meta_element_set_no": 999,
        "meta_rev_at_epoch": 32,
        "meta_bstar": -0.014744059,
        "meta_mean_motion_dot": 1.105e-05,
        "meta_mean_motion_ddot": 0,
        "tle_line1": "1 66586U 25269A   25340.74145373  .00001105  00000+0 -14744-1 0  9991",
        "tle_line2": "2 66586  63.2668 162.9832 6805236 269.7989  18.6583  2.00560491   328"
      },
      "geometry": {
        "type": "Point",
        "coordinates": [
          -147.7530024750791,
          56.41049069428963
        ]
      }
    },
    {
      "type": "Feature",
      "properties": {
        "norad_id": 66587,
        "name": "CZ-3B R/B",
        "group": "last-30-days",
        "lat": 0.3656493165561372,
        "lon": 170.98781684414237,
        "alt_km": 16958.73764672559,
        "timestamp": "2025-12-07T20:38:12.867649+00:00",
        "meta_object_name": "CZ-3B R/B",
        "meta_object_id": "2025-269B",
        "meta_epoch": "2025-12-06T20:56:55.417632",
        "meta_mean_motion": 2.02680311,
        "meta_eccentricity": 0.75198907,
        "meta_inclination": 51.3598,
        "meta_ra_of_asc_node": 171.0029,
        "meta_arg_of_pericenter": 227.6683,
        "meta_mean_anomaly": 38.3691,
        "meta_ephemeris_type": 0,
        "meta_classification_type": "U",
        "meta_norad_cat_id": 66587,
        "meta_element_set_no": 999,
        "meta_rev_at_epoch": 33,
        "meta_bstar": 0.0015659791,
        "meta_mean_motion_dot": 0.00053807,
        "meta_mean_motion_ddot": -4.99023e-07,
        "tle_line1": "1 66587U 25269B   25340.87286363  .00053807 -49902-6  15660-2 0  9997",
        "tle_line2": "2 66587  51.3598 171.0029 7519890 227.6683  38.3691  2.02680311   337"
      },
      "geometry": {
        "type": "Point",
        "coordinates": [
          170.98781684414237,
          0.3656493165561372
        ]
      }
    },
    {
      "type": "Feature",
      "properties": {
        "norad_id": 66588,
        "name": "STARLINK-36076",
        "group": "last-30-days",
        "lat": 31.77032366676508,
        "lon": -96.91392521042725,
        "alt_km": 374.6231090602905,
        "timestamp": "2025-12-07T20:38:12.867661+00:00",
        "meta_object_name": "STARLINK-36076",
        "meta_object_id": "2025-270A",
        "meta_epoch": "2025-12-07T06:00:04.999968",
        "meta_mean_motion": 15.65718024,
        "meta_eccentricity": 0.0001246,
        "meta_inclination": 42.999,
        "meta_ra_of_asc_node": 225.0742,
        "meta_arg_of_pericenter": 262.5919,
        "meta_mean_anomaly": 309.4987,
        "meta_ephemeris_type": 0,
        "meta_classification_type": "U",
        "meta_norad_cat_id": 66588,
        "meta_element_set_no": 999,
        "meta_rev_at_epoch": 351,
        "meta_bstar": -0.021753702,
        "meta_mean_motion_dot": -0.01991093,
        "meta_mean_motion_ddot": 0,
        "tle_line1": "1 66588U 25270A   25341.25005787 -.01991093  00000+0 -21754-1 0  9991",
        "tle_line2": "2 66588  42.9990 225.0742 0001246 262.5919 309.4987 15.65718024  3515"
      },
      "geometry": {
        "type": "Point",
        "coordinates": [
          -96.91392521042725,
          31.77032366676508
        ]
      }
    },
    {
      "type": "Feature",
      "properties": {
        "norad_id": 66589,
        "name": "STARLINK-35447",
        "group": "last-30-days",
        "lat": 33.6631165175433,
        "lon": -92.9569675605192,
        "alt_km": 374.513424355433,
        "timestamp": "2025-12-07T20:38:12.867672+00:00",
        "meta_object_name": "STARLINK-35447",
        "meta_object_id": "2025-270B",
        "meta_epoch": "2025-12-07T06:00:04.999968",
        "meta_mean_motion": 15.657154,
        "meta_eccentricity": 0.00014047,
        "meta_inclination": 42.9993,
        "meta_ra_of_asc_node": 225.0651,
        "meta_arg_of_pericenter": 259.5561,
        "meta_mean_anomaly": 316.371,
        "meta_ephemeris_type": 0,
        "meta_classification_type": "U",
        "meta_norad_cat_id": 66589,
        "meta_element_set_no": 999,
        "meta_rev_at_epoch": 362,
        "meta_bstar": -0.021740183,
        "meta_mean_motion_dot": -0.01989939,
        "meta_mean_motion_ddot": 0,
        "tle_line1": "1 66589U 25270B   25341.25005787 -.01989939  00000+0 -21740-1 0  9993",
        "tle_line2": "2 66589  42.9993 225.0651 0001404 259.5561 316.3710 15.65715400  3621"
      },
      "geometry": {
        "type": "Point",
        "coordinates": [
          -92.9569675605192,
          33.6631165175433
        ]
      }
    },
    {
      "type": "Feature",
      "properties": {
        "norad_id": 66590,
        "name": "STARLINK-35429",
        "group": "last-30-days",
        "lat": 32.73241696693128,
        "lon": -94.95623084777343,
        "alt_km": 374.61569361830243,
        "timestamp": "2025-12-07T20:38:12.867682+00:00",
        "meta_object_name": "STARLINK-35429",
        "meta_object_id": "2025-270C",
        "meta_epoch": "2025-12-07T06:00:04.999968",
        "meta_mean_motion": 15.65713802,
        "meta_eccentricity": 0.00013659,
        "meta_inclination": 42.9993,
        "meta_ra_of_asc_node": 225.07,
        "meta_arg_of_pericenter": 259.2184,
        "meta_mean_anomaly": 314.7922,
        "meta_ephemeris_type": 0,
        "meta_classification_type": "U",
        "meta_norad_cat_id": 66590,
        "meta_element_set_no": 999,
        "meta_rev_at_epoch": 362,
        "meta_bstar": -0.021710487,
        "meta_mean_motion_dot": -0.01987406,
        "meta_mean_motion_ddot": 0,
        "tle_line1": "1 66590U 25270C   25341.25005787 -.01987406  00000+0 -21710-1 0  9999",
        "tle_line2": "2 66590  42.9993 225.0700 0001365 259.2184 314.7922 15.65713802  3623"
      },
      "geometry": {
        "type": "Point",
        "coordinates": [
          -94.95623084777343,
          32.73241696693128
        ]
      }
    },
    {
      "type": "Feature",
      "properties": {
        "norad_id": 66591,
        "name": "STARLINK-36058",
        "group": "last-30-days",
        "lat": 34.56131059636061,
        "lon": -90.91331509895876,
        "alt_km": 374.35269357227116,
        "timestamp": "2025-12-07T20:38:12.867694+00:00",
        "meta_object_name": "STARLINK-36058",
        "meta_object_id": "2025-270D",
        "meta_epoch": "2025-12-07T06:00:04.999968",
        "meta_mean_motion": 15.65716409,
        "meta_eccentricity": 0.00013903,
        "meta_inclination": 42.9994,
        "meta_ra_of_asc_node": 225.0605,
        "meta_arg_of_pericenter": 261.8376,
        "meta_mean_anomaly": 316.0069,
        "meta_ephemeris_type": 0,
        "meta_classification_type": "U",
        "meta_norad_cat_id": 66591,
        "meta_element_set_no": 999,
        "meta_rev_at_epoch": 351,
        "meta_bstar": -0.021763804,
        "meta_mean_motion_dot": -0.019919,
        "meta_mean_motion_ddot": 0,
        "tle_line1": "1 66591U 25270D   25341.25005787 -.01991900  00000+0 -21764-1 0  9993",
        "tle_line2": "2 66591  42.9994 225.0605 0001390 261.8376 316.0069 15.65716409  3510"
      },
      "geometry": {
        "type": "Point",
        "coordinates": [
          -90.91331509895876,
          34.56131059636061
        ]
      }
    },
    {
      "type": "Feature",
      "properties": {
        "norad_id": 66592,
        "name": "STARLINK-36066",
        "group": "last-30-days",
        "lat": 35.42481276773689,
        "lon": -88.82542424171959,
        "alt_km": 374.2868866051822,
        "timestamp": "2025-12-07T20:38:12.867704+00:00",
        "meta_object_name": "STARLINK-36066",
        "meta_object_id": "2025-270E",
        "meta_epoch": "2025-12-07T06:00:04.999968",
        "meta_mean_motion": 15.65715696,
        "meta_eccentricity": 0.00014346,
        "meta_inclination": 42.9995,
        "meta_ra_of_asc_node": 225.0557,
        "meta_arg_of_pericenter": 259.3254,
        "meta_mean_anomaly": 320.4337,
        "meta_ephemeris_type": 0,
        "meta_classification_type": "U",
        "meta_norad_cat_id": 66592,
        "meta_element_set_no": 999,
        "meta_rev_at_epoch": 341,
        "meta_bstar": -0.021720871,
        "meta_mean_motion_dot": -0.01988429,
        "meta_mean_motion_ddot": 0,
        "tle_line1": "1 66592U 25270E   25341.25005787 -.01988429  00000+0 -21721-1 0  9999",
        "tle_line2": "2 66592  42.9995 225.0557 0001434 259.3254 320.4337 15.65715696  3417"
      },
      "geometry": {
        "type": "Point",
        "coordinates": [
          -88.82542424171959,
          35.42481276773689
        ]
      }
    }
  ]
}